[{"OBJECT_NAME":"STARLINK-3374","OBJECT_ID":"2022-005J","EPOCH":"2026-03-09T21:28:49.885248","MEAN_MOTION":15.08858562,"ECCENTRICITY":0.00013555,"INCLINATION":53.2171,"RA_OF_ASC_NODE":288.1695,"ARG_OF_PERICENTER":94.1755,"MEAN_ANOMALY":265.9393,"EPHEMERIS_TYPE":0,"CLASSIFICATION_TYPE":"U","NORAD_CAT_ID":51112,"ELEMENT_SET_NO":999,"REV_AT_EPOCH":22891,"BSTAR":0.00015547156,"MEAN_MOTION_DOT":2.188e-5,"MEAN_MOTION_DDOT":0},{"OBJECT_NAME":"CZ-6A DEB","OBJECT_ID":"2024-140XA","EPOCH":"2026-03-09T13:38:46.141440","MEAN_MOTION":14.97207457,"ECCENTRICITY":0.0079782,"INCLINATION":88.8472,"RA_OF_ASC_NODE":268.9899,"ARG_OF_PERICENTER":170.4337,"MEAN_ANOMALY":189.8439,"EPHEMERIS_TYPE":0,"CLASSIFICATION_TYPE":"U","NORAD_CAT_ID":61385,"ELEMENT_SET_NO":999,"REV_AT_EPOCH":8131,"BSTAR":0.0034461,"MEAN_MOTION_DOT":0.00042743,"MEAN_MOTION_DDOT":0}]
